HIMAWARI-8              
1 40267U 14060A   23331.26883601 -.00000266  00000+0  00000+0 0  9999
2 40267   0.0640 115.2089 0001033 171.0555  17.1102  1.00270271 33400
